[{"OBJECT_NAME":"NUSAT-48 (HENRIETTA LEAVITT)","OBJECT_ID":"2024-149AG","EPOCH":"2026-03-09T19:19:17.269536","MEAN_MOTION":15.29812597,"ECCENTRICITY":0.00027538,"INCLINATION":97.3923,"RA_OF_ASC_NODE":150.8264,"ARG_OF_PERICENTER":263.3026,"MEAN_ANOMALY":96.7901,"EPHEMERIS_TYPE":0,"CLASSIFICATION_TYPE":"U","NORAD_CAT_ID":60498,"ELEMENT_SET_NO":999,"REV_AT_EPOCH":8694,"BSTAR":0.00045211745,"MEAN_MOTION_DOT":0.00012988,"MEAN_MOTION_DDOT":0},{"OBJECT_NAME":"STARLINK-32398","OBJECT_ID":"2024-191D","EPOCH":"2026-03-09T06:45:13.260672","MEAN_MOTION":15.27572401,"ECCENTRICITY":5.358e-5,"INCLINATION":43.0003,"RA_OF_ASC_NODE":156.8408,"ARG_OF_PERICENTER":258.4868,"MEAN_ANOMALY":101.5923,"EPHEMERIS_TYPE":0,"CLASSIFICATION_TYPE":"U","NORAD_CAT_ID":61624,"ELEMENT_SET_NO":999,"REV_AT_EPOCH":7747,"BSTAR":9.819973e-6,"MEAN_MOTION_DOT":8.0e-8,"MEAN_MOTION_DDOT":0}]
