NUSAT-48 (HENRIETTA LE*)
1 60498U 24149AG  26068.80506098  .00012988  00000+0  45212-3 0  9999
2 60498  97.3923 150.8264 0002754 263.3026  96.7901 15.29812597 86946
STARLINK-32398          
1 61624U 24191D   26068.28140348  .00000008  00000+0  98200-5 0  9999
2 61624  43.0003 156.8408 0000535 258.4868 101.5923 15.27572401 77477
